[{"OBJECT_NAME":"ONEWEB-0562","OBJECT_ID":"2023-029D","EPOCH":"2026-03-09T16:17:10.919904","MEAN_MOTION":13.20770955,"ECCENTRICITY":8.723e-5,"INCLINATION":87.9163,"RA_OF_ASC_NODE":294.3285,"ARG_OF_PERICENTER":61.6933,"MEAN_ANOMALY":298.4288,"EPHEMERIS_TYPE":0,"CLASSIFICATION_TYPE":"U","NORAD_CAT_ID":55799,"ELEMENT_SET_NO":999,"REV_AT_EPOCH":14801,"BSTAR":-0.00043162314,"MEAN_MOTION_DOT":-1.63e-6,"MEAN_MOTION_DDOT":0},{"OBJECT_NAME":"DELTA 1 DEB","OBJECT_ID":"1977-065FT","EPOCH":"2026-03-09T01:09:44.244000","MEAN_MOTION":12.49626712,"ECCENTRICITY":0.08363593,"INCLINATION":29.2084,"RA_OF_ASC_NODE":47.0414,"ARG_OF_PERICENTER":348.2183,"MEAN_ANOMALY":9.9851,"EPHEMERIS_TYPE":0,"CLASSIFICATION_TYPE":"U","NORAD_CAT_ID":14565,"ELEMENT_SET_NO":999,"REV_AT_EPOCH":2936,"BSTAR":0.0076894224,"MEAN_MOTION_DOT":4.311e-5,"MEAN_MOTION_DDOT":0}]
